{
  "type": "FeatureCollection",
  "features": [
    {
      "type": "Feature",
      "properties": {
        "norad_id": 66505,
        "name": "STARLINK-34766",
        "group": "last-30-days",
        "lat": -12.49721724892993,
        "lon": 140.30724048355205,
        "alt_km": 409.87783366705753,
        "timestamp": "2025-12-07T18:50:15.513951+00:00",
        "meta_object_name": "STARLINK-34766",
        "meta_object_id": "2025-263W",
        "meta_epoch": "2025-12-07T06:00:04.999968",
        "meta_mean_motion": 15.55000183,
        "meta_eccentricity": 0.00013945,
        "meta_inclination": 43.0002,
        "meta_ra_of_asc_node": 157.2112,
        "meta_arg_of_pericenter": 264.8764,
        "meta_mean_anomaly": 321.3588,
        "meta_ephemeris_type": 0,
        "meta_classification_type": "U",
        "meta_norad_cat_id": 66505,
        "meta_element_set_no": 999,
        "meta_rev_at_epoch": 475,
        "meta_bstar": -0.033906423,
        "meta_mean_motion_dot": -0.02078846,
        "meta_mean_motion_ddot": 0,
        "tle_line1": "1 66505U 25263W   25341.25005787 -.02078846  00000+0 -33906-1 0  9997",
        "tle_line2": "2 66505  43.0002 157.2112 0001394 264.8764 321.3588 15.55000183  4750"
      },
      "geometry": {
        "type": "Point",
        "coordinates": [
          140.30724048355205,
          -12.49721724892993
        ]
      }
    },
    {
      "type": "Feature",
      "properties": {
        "norad_id": 66506,
        "name": "STARLINK-34765",
        "group": "last-30-days",
        "lat": -11.224587598987775,
        "lon": 141.76711295636468,
        "alt_km": 409.8310631772674,
        "timestamp": "2025-12-07T18:50:15.513961+00:00",
        "meta_object_name": "STARLINK-34765",
        "meta_object_id": "2025-263X",
        "meta_epoch": "2025-12-07T06:00:04.999968",
        "meta_mean_motion": 15.54998467,
        "meta_eccentricity": 0.00013299,
        "meta_inclination": 43.0003,
        "meta_ra_of_asc_node": 157.2073,
        "meta_arg_of_pericenter": 263.3675,
        "meta_mean_anomaly": 324.7876,
        "meta_ephemeris_type": 0,
        "meta_classification_type": "U",
        "meta_norad_cat_id": 66506,
        "meta_element_set_no": 999,
        "meta_rev_at_epoch": 475,
        "meta_bstar": -0.03389755,
        "meta_mean_motion_dot": -0.02078202,
        "meta_mean_motion_ddot": 0,
        "tle_line1": "1 66506U 25263X   25341.25005787 -.02078202  00000+0 -33898-1 0  9994",
        "tle_line2": "2 66506  43.0003 157.2073 0001329 263.3675 324.7876 15.54998467  4758"
      },
      "geometry": {
        "type": "Point",
        "coordinates": [
          141.76711295636468,
          -11.224587598987775
        ]
      }
    },
    {
      "type": "Feature",
      "properties": {
        "norad_id": 66507,
        "name": "STARLINK-34767",
        "group": "last-30-days",
        "lat": -8.660238312672517,
        "lon": 144.64405961460744,
        "alt_km": 409.68525079533083,
        "timestamp": "2025-12-07T18:50:15.513972+00:00",
        "meta_object_name": "STARLINK-34767",
        "meta_object_id": "2025-263Y",
        "meta_epoch": "2025-12-07T06:00:04.999968",
        "meta_mean_motion": 15.55004505,
        "meta_eccentricity": 0.00015108,
        "meta_inclination": 43.0001,
        "meta_ra_of_asc_node": 157.1954,
        "meta_arg_of_pericenter": 261.6604,
        "meta_mean_anomaly": 330.33,
        "meta_ephemeris_type": 0,
        "meta_classification_type": "U",
        "meta_norad_cat_id": 66507,
        "meta_element_set_no": 999,
        "meta_rev_at_epoch": 475,
        "meta_bstar": -0.034162052,
        "meta_mean_motion_dot": -0.0209317,
        "meta_mean_motion_ddot": 0,
        "tle_line1": "1 66507U 25263Y   25341.25005787 -.02093170  00000+0 -34162-1 0  9991",
        "tle_line2": "2 66507  43.0001 157.1954 0001510 261.6604 330.3300 15.55004505  4756"
      },
      "geometry": {
        "type": "Point",
        "coordinates": [
          144.64405961460744,
          -8.660238312672517
        ]
      }
    },
    {
      "type": "Feature",
      "properties": {
        "norad_id": 66508,
        "name": "STARLINK-35608",
        "group": "last-30-days",
        "lat": -4.770786589767834,
        "lon": 148.90050419267004,
        "alt_km": 409.33231057271496,
        "timestamp": "2025-12-07T18:50:15.513984+00:00",
        "meta_object_name": "STARLINK-35608",
        "meta_object_id": "2025-263Z",
        "meta_epoch": "2025-12-07T06:00:04.999968",
        "meta_mean_motion": 15.55000176,
        "meta_eccentricity": 0.0001343,
        "meta_inclination": 43.0004,
        "meta_ra_of_asc_node": 157.183,
        "meta_arg_of_pericenter": 261.6571,
        "meta_mean_anomaly": 336.084,
        "meta_ephemeris_type": 0,
        "meta_classification_type": "U",
        "meta_norad_cat_id": 66508,
        "meta_element_set_no": 999,
        "meta_rev_at_epoch": 475,
        "meta_bstar": -0.033969631,
        "meta_mean_motion_dot": -0.02082263,
        "meta_mean_motion_ddot": 0,
        "tle_line1": "1 66508U 25263Z   25341.25005787 -.02082263  00000+0 -33970-1 0  9999",
        "tle_line2": "2 66508  43.0004 157.1830 0001343 261.6571 336.0840 15.55000176  4752"
      },
      "geometry": {
        "type": "Point",
        "coordinates": [
          148.90050419267004,
          -4.770786589767834
        ]
      }
    },
    {
      "type": "Feature",
      "properties": {
        "norad_id": 66509,
        "name": "STARLINK-35598",
        "group": "last-30-days",
        "lat": 0.44649553789972385,
        "lon": 154.49577540457335,
        "alt_km": 408.927225615299,
        "timestamp": "2025-12-07T18:50:15.513994+00:00",
        "meta_object_name": "STARLINK-35598",
        "meta_object_id": "2025-263AA",
        "meta_epoch": "2025-12-07T06:00:04.999968",
        "meta_mean_motion": 15.55008372,
        "meta_eccentricity": 0.0001694,
        "meta_inclination": 43.0001,
        "meta_ra_of_asc_node": 157.1607,
        "meta_arg_of_pericenter": 261.2151,
        "meta_mean_anomaly": 344.1951,
        "meta_ephemeris_type": 0,
        "meta_classification_type": "U",
        "meta_norad_cat_id": 66509,
        "meta_element_set_no": 999,
        "meta_rev_at_epoch": 475,
        "meta_bstar": -0.034363522,
        "meta_mean_motion_dot": -0.02104542,
        "meta_mean_motion_ddot": 0,
        "tle_line1": "1 66509U 25263AA  25341.25005787 -.02104542  00000+0 -34364-1 0  9993",
        "tle_line2": "2 66509  43.0001 157.1607 0001694 261.2151 344.1951 15.55008372  4750"
      },
      "geometry": {
        "type": "Point",
        "coordinates": [
          154.49577540457335,
          0.44649553789972385
        ]
      }
    },
    {
      "type": "Feature",
      "properties": {
        "norad_id": 66510,
        "name": "STARLINK-35600",
        "group": "last-30-days",
        "lat": -3.470789495676177,
        "lon": 150.29950189053284,
        "alt_km": 409.3048579063934,
        "timestamp": "2025-12-07T18:50:15.514004+00:00",
        "meta_object_name": "STARLINK-35600",
        "meta_object_id": "2025-263AB",
        "meta_epoch": "2025-12-07T06:00:04.999968",
        "meta_mean_motion": 15.55005387,
        "meta_eccentricity": 0.00015548,
        "meta_inclination": 43.0002,
        "meta_ra_of_asc_node": 157.1754,
        "meta_arg_of_pericenter": 260.0223,
        "meta_mean_anomaly": 339.6391,
        "meta_ephemeris_type": 0,
        "meta_classification_type": "U",
        "meta_norad_cat_id": 66510,
        "meta_element_set_no": 999,
        "meta_rev_at_epoch": 475,
        "meta_bstar": -0.034266078,
        "meta_mean_motion_dot": -0.02098931,
        "meta_mean_motion_ddot": 0,
        "tle_line1": "1 66510U 25263AB  25341.25005787 -.02098931  00000+0 -34266-1 0  9990",
        "tle_line2": "2 66510  43.0002 157.1754 0001554 260.0223 339.6391 15.55005387  4758"
      },
      "geometry": {
        "type": "Point",
        "coordinates": [
          150.29950189053284,
          -3.470789495676177
        ]
      }
    },
    {
      "type": "Feature",
      "properties": {
        "norad_id": 66511,
        "name": "STARLINK-35444",
        "group": "last-30-days",
        "lat": -0.8604285423076979,
        "lon": 153.09882795922857,
        "alt_km": 409.1498146765971,
        "timestamp": "2025-12-07T18:50:15.514014+00:00",
        "meta_object_name": "STARLINK-35444",
        "meta_object_id": "2025-263AC",
        "meta_epoch": "2025-12-07T06:00:04.999968",
        "meta_mean_motion": 15.55010487,
        "meta_eccentricity": 0.00015656,
        "meta_inclination": 43,
        "meta_ra_of_asc_node": 157.1664,
        "meta_arg_of_pericenter": 257.1118,
        "meta_mean_anomaly": 346.3792,
        "meta_ephemeris_type": 0,
        "meta_classification_type": "U",
        "meta_norad_cat_id": 66511,
        "meta_element_set_no": 999,
        "meta_rev_at_epoch": 475,
        "meta_bstar": -0.034363574,
        "meta_mean_motion_dot": -0.02104604,
        "meta_mean_motion_ddot": 0,
        "tle_line1": "1 66511U 25263AC  25341.25005787 -.02104604  00000+0 -34364-1 0  9995",
        "tle_line2": "2 66511  43.0000 157.1664 0001565 257.1118 346.3792 15.55010487  4756"
      },
      "geometry": {
        "type": "Point",
        "coordinates": [
          153.09882795922857,
          -0.8604285423076979
        ]
      }
    }
  ]
}